{
    "links": {
        "self": "http://www.neowsapp.com/rest/v1/neo/3942360?api_key=iIulBulltgU6a56xZRHN4H3l9WmuAYTsLGpBGhQ2"
    },
    "id": "3942360",
    "neo_reference_id": "3942360",
    "name": "(2019 YH)",
    "designation": "2019 YH",
    "nasa_jpl_url": "http://ssd.jpl.nasa.gov/sbdb.cgi?sstr=3942360",
    "absolute_magnitude_h": 21.7,
    "estimated_diameter": {
        "kilometers": {
            "estimated_diameter_min": 0.1214940408,
            "estimated_diameter_max": 0.2716689341
        },
        "meters": {
            "estimated_diameter_min": 121.4940407996,
            "estimated_diameter_max": 271.6689340891
        },
        "miles": {
            "estimated_diameter_min": 0.0754928736,
            "estimated_diameter_max": 0.1688071972
        },
        "feet": {
            "estimated_diameter_min": 398.6025088171,
            "estimated_diameter_max": 891.3023057169
        }
    },
    "is_potentially_hazardous_asteroid": false,
    "close_approach_data": [
        {
            "close_approach_date": "2020-01-08",
            "close_approach_date_full": "2020-Jan-08 20:30",
            "epoch_date_close_approach": 1578515400000,
            "relative_velocity": {
                "kilometers_per_second": "16.4161951147",
                "kilometers_per_hour": "59098.3024129632",
                "miles_per_hour": "36721.3868520993"
            },
            "miss_distance": {
                "astronomical": "0.187221",
                "lunar": "72.828969",
                "kilometers": "28007862.81927",
                "miles": "17403278.955126"
            },
            "orbiting_body": "Earth"
        }
    ],
    "orbital_data": {
        "orbit_id": "6",
        "orbit_determination_date": "2020-01-13 04:52:36",
        "first_observation_date": "2019-12-17",
        "last_observation_date": "2020-01-12",
        "data_arc_in_days": 26,
        "observations_used": 41,
        "orbit_uncertainty": "8",
        "minimum_orbit_intersection": ".176842",
        "jupiter_tisserand_invariant": "3.590",
        "epoch_osculation": "2458840.5",
        "eccentricity": ".5643396776035611",
        "semi_major_axis": "1.966748865951679",
        "inclination": "21.57826529407084",
        "ascending_node_longitude": "84.76260015215362",
        "orbital_period": "1007.446029312866",
        "perihelion_distance": ".8568344450133393",
        "perihelion_argument": "89.20257076317213",
        "aphelion_distance": "3.07666328689002",
        "perihelion_time": "2458908.247751998122",
        "mean_anomaly": "335.7910696854315",
        "mean_motion": ".3573392415329087",
        "equinox": "J2000",
        "orbit_class": {
            "orbit_class_type": "APO",
            "orbit_class_description": "Near-Earth asteroid orbits which cross the Earth’s orbit similar to that of 1862 Apollo",
            "orbit_class_range": "a (semi-major axis) > 1.0 AU; q (perihelion) < 1.017 AU"
        }
    },
    "is_sentry_object": false
}